NORAD_CAT_ID,OBJECT_NAME,OBJECT_TYPE,EPOCH,MEAN_MOTION,ECCENTRICITY,INCLINATION,RA_OF_ASC_NODE,ARG_OF_PERICENTER,MEAN_ANOMALY,BSTAR,MEAN_MOTION_DOT,MEAN_MOTION_DDOT,TLE_LINE0,TLE_LINE1,TLE_LINE2,SEMIMAJOR_AXIS,PERIOD,APOGEE,PERIGEE,DECAYED
56476.0,STARLINK-5545,PAYLOAD,2024-06-27 12:44:08,14.98327457,0.0003538,69.9986,248.1695,275.6511,84.4244,7.1422e-05,7.59e-06,0.0,0 STARLINK-5545,1 56476U 23064AE  24179.53065956  .00000759  00000-0  71422-4 0  9996,2 56476  69.9986 248.1695 0003538 275.6511  84.4244 14.98327457 63205,6950.201,96.107,574.525,569.607,0.0
56476.0,STARLINK-5545,PAYLOAD,2024-06-27 14:20:16,14.98329541,0.0003525,69.9988,248.0016,275.4805,84.5952,8.7468e-05,9.51e-06,0.0,0 STARLINK-5545,1 56476U 23064AE  24179.59741809  .00000951  00000-0  87468-4 0  9991,2 56476  69.9988 248.0016 0003525 275.4805  84.5952 14.98329541 62856,6950.194,96.107,574.509,569.609,0.0
56476.0,STARLINK-5545,PAYLOAD,2024-06-28 04:45:28,14.98331562,0.0003638,69.9984,246.4862,275.4908,84.5836,0.00031778,3.701e-05,0.0,0 STARLINK-5545,1 56476U 23064AE  24180.19825114  .00003701  00000-0  31778-3 0  9999,2 56476  69.9984 246.4862 0003638 275.4908  84.5836 14.98331562 63300,6950.188,96.107,574.582,569.525,0.0
56476.0,STARLINK-5545,PAYLOAD,2024-06-28 12:46:08,14.98336989,0.0003498,69.9988,245.6445,274.1813,85.8946,0.00058303,6.872e-05,0.0,0 STARLINK-5545,1 56476U 23064AE  24180.53204371  .00006872  00000-0  58303-3 0  9998,2 56476  69.9988 245.6445 0003498 274.1813  85.8946 14.98336989 63356,6950.171,96.107,574.467,569.605,0.0
56476.0,STARLINK-5545,PAYLOAD,2024-06-28 14:22:16,14.983474,0.0003473,69.9987,245.4762,274.4658,85.6104,0.000492,5.785e-05,0.0,0 STARLINK-5545,1 56476U 23064AE  24180.59879966  .00005785  00000-0  49200-3 0  9990,2 56476  69.9987 245.4762 0003473 274.4658  85.6104 14.98347400 63004,6950.139,96.106,574.418,569.59,0.0
56476.0,STARLINK-5545,PAYLOAD,2024-06-29 04:47:29,14.98339481,0.0003346,69.9985,243.9608,271.0429,89.0347,0.00012599,1.411e-05,0.0,0 STARLINK-5545,1 56476U 23064AE  24181.19965146  .00001411  00000-0  12599-3 0  9996,2 56476  69.9985 243.9608 0003346 271.0429  89.0347 14.98339481 63458,6950.164,96.106,574.354,569.703,0.0
56476.0,STARLINK-5545,PAYLOAD,2024-06-29 14:24:17,14.98345218,0.0003437,69.9996,242.9509,273.3946,86.682,0.00013315,1.497e-05,0.0,0 STARLINK-5545,1 56476U 23064AE  24181.60020539  .00001497  00000-0  13315-3 0  9991,2 56476  69.9996 242.9509 0003437 273.3946  86.6820 14.98345218 63150,6950.146,96.106,574.4,569.622,0.0
56476.0,STARLINK-5545,PAYLOAD,2024-06-29 20:48:50,14.9834026,0.0003525,69.9994,242.276,277.6375,82.4383,-4.4612e-05,-6.26e-06,0.0,0 STARLINK-5545,1 56476U 23064AE  24181.86724596 -.00000626  00000-0 -44612-4 0  9993,2 56476  69.9994 242.2760 0003525 277.6375  82.4383 14.98340260 63195,6950.161,96.106,574.476,569.576,0.0
56476.0,STARLINK-5545,PAYLOAD,2024-06-30 04:49:30,14.98333964,0.0003272,70.0002,241.4365,271.8455,88.2329,-0.00019022,-2.362e-05,0.0,0 STARLINK-5545,1 56476U 23064AE  24182.20104777 -.00002362  00000-0 -19022-3 0  9990,2 56476  70.0002 241.4365 0003272 271.8455  88.2329 14.98333964 63607,6950.181,96.107,574.32,569.772,0.0
56476.0,STARLINK-5545,PAYLOAD,2024-06-30 14:26:19,14.98335256,0.0003296,69.999,240.4268,272.0747,88.0035,-9.7398e-05,-1.255e-05,0.0,0 STARLINK-5545,1 56476U 23064AE  24182.60161085 -.00001255  00000-0 -97398-4 0  9992,2 56476  69.9990 240.4268 0003296 272.0747  88.0035 14.98335256 63309,6950.177,96.107,574.332,569.751,0.0
56476.0,STARLINK-5545,PAYLOAD,2024-06-30 20:50:51,14.98342049,0.000322,69.9988,239.7533,272.8525,87.2266,-0.00018448,-2.294e-05,0.0,0 STARLINK-5545,1 56476U 23064AE  24182.86864676 -.00002294  00000-0 -18448-3 0  9998,2 56476  69.9988 239.7533 0003220 272.8525  87.2266 14.98342049 63340,6950.156,96.106,574.259,569.783,0.0
56476.0,STARLINK-5545,PAYLOAD,2024-07-01 04:51:31,14.98335408,0.0003112,69.9988,238.9116,271.6795,88.4008,6.648e-05,7e-06,0.0,0 STARLINK-5545,1 56476U 23064AE  24183.20244482  .00000700  00000-0  66480-4 0  9992,2 56476  69.9988 238.9116 0003112 271.6795  88.4008 14.98335408 63757,6950.176,96.107,574.204,569.878,0.0
56476.0,STARLINK-5545,PAYLOAD,2024-07-01 14:28:19,14.98336054,0.0003167,69.9987,237.9019,270.3413,89.7383,7.5166e-05,8.04e-06,0.0,0 STARLINK-5545,1 56476U 23064AE  24183.60300297  .00000804  00000-0  75166-4 0  9999,2 56476  69.9987 237.9019 0003167 270.3413  89.7383 14.98336054 63455,6950.174,96.107,574.24,569.838,0.0
56476.0,STARLINK-5545,PAYLOAD,2024-07-01 20:52:51,14.9833425,0.0003218,69.9986,237.2281,271.4231,88.6559,3.1138e-05,2.79e-06,0.0,0 STARLINK-5545,1 56476U 23064AE  24183.87004450  .00000279  00000-0  31138-4 0  9997,2 56476  69.9986 237.2281 0003218 271.4231  88.6559 14.98334250 63498,6950.18,96.107,574.281,569.808,0.0
56476.0,STARLINK-5545,PAYLOAD,2024-07-02 04:53:32,14.98324009,0.0003197,69.9987,236.3866,269.5325,90.5468,7.1869e-05,7.64e-06,0.0,0 STARLINK-5545,1 56476U 23064AE  24184.20385062  .00000764  00000-0  71869-4 0  9990,2 56476  69.9987 236.3866 0003197 269.5325  90.5468 14.98324009 63904,6950.211,96.107,574.298,569.854,0.0
56476.0,STARLINK-5545,PAYLOAD,2024-07-02 12:54:12,14.98326153,0.0003248,69.9988,235.5453,269.504,90.5747,6.4669e-05,6.79e-06,0.0,0 STARLINK-5545,1 56476U 23064AE  24184.53764999  .00000679  00000-0  64669-4 0  9991,2 56476  69.9988 235.5453 0003248 269.5040  90.5747 14.98326153 63596,6950.205,96.107,574.327,569.812,0.0
56476.0,STARLINK-5545,PAYLOAD,2024-07-03 04:55:33,14.9833064,0.0003269,69.9984,233.8623,269.8777,90.2007,3.0829e-05,2.75e-06,0.0,0 STARLINK-5545,1 56476U 23064AE  24185.20524777  .00000275  00000-0  30829-4 0  9997,2 56476  69.9984 233.8623 0003269 269.8777  90.2007 14.98330640 64059,6950.191,96.107,574.328,569.784,0.0
56476.0,STARLINK-5545,PAYLOAD,2024-07-03 20:56:53,14.98333101,0.0003371,69.9982,232.1777,265.4836,94.5938,5.4885e-06,-2.8e-07,0.0,0 STARLINK-5545,1 56476U 23064AE  24185.87284529 -.00000028  00000-0  54885-5 0  9994,2 56476  69.9982 232.1777 0003371 265.4836  94.5938 14.98333101 63796,6950.183,96.107,574.391,569.705,0.0
56476.0,STARLINK-5545,PAYLOAD,2024-07-04 04:57:34,14.98329337,0.0003313,69.998,231.3359,269.0674,91.0105,0.00010823,1.199e-05,0.0,0 STARLINK-5545,1 56476U 23064AE  24186.20664508  .00001199  00000-0  10823-3 0  9992,2 56476  69.9980 231.3359 0003313 269.0674  91.0105 14.98329337 64208,6950.195,96.107,574.363,569.757,0.0
56476.0,STARLINK-5545,PAYLOAD,2024-07-04 12:58:14,14.98332968,0.0003335,69.9981,230.4945,269.4893,90.5884,9.2876e-05,1.015e-05,0.0,0 STARLINK-5545,1 56476U 23064AE  24186.54044302  .00001015  00000-0  92876-4 0  9999,2 56476  69.9981 230.4945 0003335 269.4893  90.5884 14.98332968 63897,6950.184,96.107,574.367,569.731,0.0
56476.0,STARLINK-5545,PAYLOAD,2024-07-05 04:59:34,14.9833389,0.0003367,69.9981,228.8113,269.3259,90.7514,4.6894e-05,4.67e-06,0.0,0 STARLINK-5545,1 56476U 23064AE  24187.20804257  .00000467  00000-0  46894-4 0  9995,2 56476  69.9981 228.8113 0003367 269.3259  90.7514 14.98333890 64354,6950.181,96.107,574.386,569.706,0.0
56476.0,STARLINK-5545,PAYLOAD,2024-07-05 13:00:14,14.98337255,0.000335,69.9981,227.9697,269.3597,90.7179,8.0173e-05,8.64e-06,0.0,0 STARLINK-5545,1 56476U 23064AE  24187.54183857  .00000864  00000-0  80173-4 0  9997,2 56476  69.9981 227.9697 0003350 269.3597  90.7179 14.98337255 64040,6950.17,96.107,574.364,569.707,0.0
56476.0,STARLINK-5545,PAYLOAD,2024-07-05 19:24:47,14.98332735,0.0003313,69.9983,227.2963,269.6073,90.4707,4.3453e-05,4.25e-06,0.0,0 STARLINK-5545,1 56476U 23064AE  24187.80888167  .00000425  00000-0  43453-4 0  9995,2 56476  69.9983 227.2963 0003313 269.6073  90.4707 14.98332735 64088,6950.184,96.107,574.352,569.747,0.0
56476.0,STARLINK-5545,PAYLOAD,2024-07-06 05:01:35,14.98331695,0.0003256,69.9983,226.2863,270.1825,89.8961,1.5947e-06,-7.4e-07,0.0,0 STARLINK-5545,1 56476U 23064AE  24188.20944265 -.00000074  00000-0  15947-5 0  9991,2 56476  69.9983 226.2863 0003256 270.1825  89.8961 14.98331695 64509,6950.188,96.107,574.316,569.79,0.0
56476.0,STARLINK-5545,PAYLOAD,2024-07-06 13:02:16,14.98331158,0.0003241,69.9985,225.4449,269.8939,90.1849,2.0118e-06,-6.9e-07,0.0,0 STARLINK-5545,1 56476U 23064AE  24188.54324208 -.00000069  00000-0  20118-5 0  9997,2 56476  69.9985 225.4449 0003241 269.8939  90.1849 14.98331158 64196,6950.189,96.107,574.307,569.802,0.0
56476.0,STARLINK-5545,PAYLOAD,2024-07-06 19:26:48,14.9833039,0.0003239,69.9985,224.7715,270.1415,89.9373,-8.0773e-06,-1.89e-06,0.0,0 STARLINK-5545,1 56476U 23064AE  24188.81028265 -.00000189  00000-0 -80773-5 0  9998,2 56476  69.9985 224.7715 0003239 270.1415  89.9373 14.98330390 64235,6950.192,96.107,574.308,569.806,0.0
56476.0,STARLINK-5545,PAYLOAD,2024-07-07 05:03:36,14.98330652,0.0003237,69.9984,223.7615,270.6939,89.3849,-1.8735e-05,-3.17e-06,0.0,0 STARLINK-5545,1 56476U 23064AE  24189.21084244 -.00000317  00000-0 -18735-4 0  9993,2 56476  69.9984 223.7615 0003237 270.6939  89.3849 14.98330652 64655,6950.191,96.107,574.306,569.806,0.0
56476.0,STARLINK-5545,PAYLOAD,2024-07-07 11:28:09,14.98329339,0.0003271,69.9985,223.0884,269.4787,90.5997,-3.2408e-05,-4.8e-06,0.0,0 STARLINK-5545,1 56476U 23064AE  24189.47788343 -.00000480  00000-0 -32408-4 0  9996,2 56476  69.9985 223.0884 0003271 269.4787  90.5997 14.98329339 64335,6950.195,96.107,574.333,569.787,0.0
56476.0,STARLINK-5545,PAYLOAD,2024-07-08 11:30:09,14.98329563,0.0003357,69.9985,220.5634,269.4423,90.6352,3.5507e-05,3.31e-06,0.0,0 STARLINK-5545,1 56476U 23064AE  24190.47928156  .00000331  00000-0  35507-4 0  9992,2 56476  69.9985 220.5634 0003357 269.4423  90.6352 14.98329563 64843,6950.194,96.107,574.392,569.726,0.0
56476.0,STARLINK-5545,PAYLOAD,2024-07-09 11:32:10,14.98329711,0.0003391,69.9984,218.0382,268.5224,91.5547,5.0012e-05,5.04e-06,0.0,0 STARLINK-5545,1 56476U 23064AE  24191.48068119  .00000504  00000-0  50012-4 0  9998,2 56476  69.9984 218.0382 0003391 268.5224  91.5547 14.98329711 64998,6950.194,96.107,574.416,569.702,0.0
